H1 CPF 01  gfz 2022 09 21 12  7642 terrasarx 
H2 0702601  6201 31698    2022 09 21 12 59 42 2022 09 26 00 00 42   120 1 1  0 0 0
H9
10 0 59846  85662.000000  0    -368750.272   6870570.835   -362475.963
10 0 59846  85782.000000  0    -185934.072   6772198.683  -1260644.381
10 0 59846  85902.000000  0      -2657.983   6552388.813  -2136648.737
10 0 59846  86022.000000  0     175789.387   6215111.589  -2975118.211
10 0 59846  86142.000000  0     344297.045   5766482.757  -3761372.324
10 0 59846  86262.000000  0     498057.601   5214641.092  -4481679.318
10 0 59846  86382.000000  0     632684.827   4569588.167  -5123493.692
10 0 59847    102.000000  0     744320.028   3842995.357  -5675668.648
10 0 59847    222.000000  0     829724.527   3047982.952  -6128641.032
10 0 59847    342.000000  0     886356.521   2198876.166  -6474586.201
10 0 59847    462.000000  0     912431.715   1310944.438  -6707541.046
10 0 59847    582.000000  0     906966.043    400128.601  -6823496.915
10 0 59847    702.000000  0     869800.645   -517241.206  -6820461.392
10 0 59847    822.000000  0     801608.183  -1424732.625  -6698487.812
10 0 59847    942.000000  0     703880.799  -2306097.161  -6459672.835
10 0 59847   1062.000000  0     578900.492  -3145553.015  -6108125.914
10 0 59847   1182.000000  0     429690.736  -3928065.003  -5649907.700
10 0 59847   1302.000000  0     259951.178  -4639612.932  -5092934.451
10 0 59847   1422.000000  0      73976.485  -5267445.173  -4446852.923
10 0 59847   1542.000000  0    -123440.487  -5800314.258  -3722884.554
10 0 59847   1662.000000  0    -327118.846  -6228688.403  -2933639.252
10 0 59847   1782.000000  0    -531611.079  -6544933.806  -2092902.315
10 0 59847   1902.000000  0    -731333.234  -6743464.441  -1215396.261
10 0 59847   2022.000000  0    -920700.578  -6820852.867   -316520.811
10 0 59847   2142.000000  0   -1094265.470  -6775898.658    587922.443
10 0 59847   2262.000000  0   -1246854.219  -6609653.045   1482014.804
10 0 59847   2382.000000  0   -1373699.389  -6325398.575   2350009.647
10 0 59847   2502.000000  0   -1470563.560  -5928582.965   3176619.075
10 0 59847   2622.000000  0   -1533851.354  -5426709.311   3947291.223
10 0 59847   2742.000000  0   -1560706.156  -4829185.167   4648471.105
10 0 59847   2862.000000  0   -1549090.761  -4147137.319   5267839.989
10 0 59847   2982.000000  0   -1497850.128  -3393195.652   5794532.109
10 0 59847   3102.000000  0   -1406753.662  -2581248.807   6219321.920
10 0 59847   3222.000000  0   -1276516.115  -1726181.454   6534778.648
10 0 59847   3342.000000  0   -1108798.418   -843598.375   6735390.232
10 0 59847   3462.000000  0    -906188.889     50462.804   6817654.308
10 0 59847   3582.000000  0    -672164.100    939822.839   6780135.112
10 0 59847   3702.000000  0    -411028.993   1808453.137   6623487.614
10 0 59847   3822.000000  0    -127837.691   2640764.298   6350446.715
10 0 59847   3942.000000  0     171703.415   3421885.780   5965782.280
10 0 59847   4062.000000  0     481348.217   4137933.477   5476221.028
10 0 59847   4182.000000  0     794438.083   4776260.541   4890334.725
10 0 59847   4302.000000  0    1104041.937   5325687.446   4218395.928
10 0 59847   4422.000000  0    1403104.518   5776705.199   3472201.833
10 0 59847   4542.000000  0    1684602.464   6121650.246   2664872.880
10 0 59847   4662.000000  0    1941705.275   6354846.263   1810618.730
10 0 59847   4782.000000  0    2167932.121   6472704.465    924483.249
10 0 59847   4902.000000  0    2357305.344   6473781.873     22072.029
10 0 59847   5022.000000  0    2504494.027   6358796.392   -880729.969
10 0 59847   5142.000000  0    2604945.360   6130599.447  -1768046.078
10 0 59847   5262.000000  0    2655000.588   5794105.999  -2624294.566
10 0 59847   5382.000000  0    2651992.255   5356184.140  -3434468.637
10 0 59847   5502.000000  0    2594320.212   4825505.946  -4184403.358
10 0 59847   5622.000000  0    2481504.221   4212365.122  -4861022.445
10 0 59847   5742.000000  0    2314212.941   3528467.407  -5452561.254
10 0 59847   5862.000000  0    2094269.730   2786699.461  -5948763.326
10 0 59847   5982.000000  0    1824634.921   2000880.220  -6341048.432
10 0 59847   6102.000000  0    1509365.429   1185501.006  -6622648.750
10 0 59847   6222.000000  0    1153553.919    355460.000  -6788714.851
10 0 59847   6342.000000  0     763246.293   -474206.031  -6836391.161
10 0 59847   6462.000000  0     345339.528  -1288588.991  -6764858.722
10 0 59847   6582.000000  0     -92537.268  -2073169.890  -6575346.231
10 0 59847   6702.000000  0    -542157.865  -2814070.441  -6271112.534
10 0 59847   6822.000000  0    -994849.649  -3498295.548  -5857397.439
10 0 59847   6942.000000  0   -1441656.012  -4113959.452  -5341340.001
10 0 59847   7062.000000  0   -1873509.208  -4650494.265  -4731867.390
10 0 59847   7182.000000  0   -2281411.421  -5098837.771  -4039551.978
10 0 59847   7302.000000  0   -2656620.289  -5451594.826  -3276437.468
10 0 59847   7422.000000  0   -2990834.432  -5703168.925  -2455836.897
10 0 59847   7542.000000  0   -3276375.441  -5849861.433  -1592105.034
10 0 59847   7662.000000  0   -3506362.244  -5889935.311   -700387.577
10 0 59847   7782.000000  0   -3674872.271  -5823639.812    203648.704
10 0 59847   7902.000000  0   -3777084.915  -5653195.005   1104098.063
10 0 59847   8022.000000  0   -3809404.012  -5382736.447   1985104.508
10 0 59847   8142.000000  0   -3769555.400  -5018220.199   2831150.415
10 0 59847   8262.000000  0   -3656657.267  -4567291.750   3627337.531
10 0 59847   8382.000000  0   -3471261.817  -4039122.619   4359655.482
10 0 59847   8502.000000  0   -3215367.088  -3444217.814   5015231.909
10 0 59847   8622.000000  0   -2892399.223  -2794199.906   5582558.397
10 0 59847   8742.000000  0   -2507165.683  -2101576.168   6051689.473
10 0 59847   8862.000000  0   -2065781.180  -1379493.991   6414412.622
10 0 59847   8982.000000  0   -1575567.235   -641487.512   6664388.202
10 0 59847   9102.000000  0   -1044926.642     98779.220   6797252.548
10 0 59847   9222.000000  0    -483199.132    827763.791   6810687.773
10 0 59847   9342.000000  0      99502.686   1532292.389   6704460.580
10 0 59847   9462.000000  0     692475.126   2199797.728   6480426.319
10 0 59847   9582.000000  0    1284619.649   2818543.113   6142497.920
10 0 59847   9702.000000  0    1864649.553   3377829.153   5696581.939
10 0 59847   9822.000000  0    2421304.595   3868182.016   5150481.794
10 0 59847   9942.000000  0    2943571.263   4281519.133   4513767.381
10 0 59847  10062.000000  0    3420902.682   4611287.262   3797611.327
10 0 59847  10182.000000  0    3843433.171   4852571.876   3014598.101
10 0 59847  10302.000000  0    4202188.121   5002177.684   2178503.899
10 0 59847  10422.000000  0    4489275.692   5058670.593   1304048.608
10 0 59847  10542.000000  0    4698059.948   5022386.664    406633.648
10 0 59847  10662.000000  0    4823312.312   4895405.529   -497938.899
10 0 59847  10782.000000  0    4861332.239   4681484.943  -1393753.827
10 0 59847  10902.000000  0    4810038.494   4385962.701  -2265070.101
10 0 59847  11022.000000  0    4669027.961   4015628.355  -3096604.163
10 0 59847  11142.000000  0    4439599.994   3578567.149  -3873802.604
10 0 59847  11262.000000  0    4124745.497   3083980.982  -4583097.777
10 0 59847  11382.000000  0    3729103.523   2541991.046  -5212141.467
10 0 59847  11502.000000  0    3258886.760   1963427.368  -5750013.637
10 0 59847  11622.000000  0    2721776.840   1359610.274  -6187402.919
10 0 59847  11742.000000  0    2126792.847    742128.595  -6516756.287
10 0 59847  11862.000000  0    1484137.058    122619.631  -6732397.185
10 0 59847  11982.000000  0     805021.089   -487445.869  -6830614.513
10 0 59847  12102.000000  0     101471.403  -1076972.111  -6809719.832
10 0 59847  12222.000000  0    -613878.991  -1635434.517  -6670071.347
10 0 59847  12342.000000  0   -1328011.240  -2153062.271  -6414069.187
10 0 59847  12462.000000  0   -2027752.387  -2621006.616  -6046119.133
10 0 59847  12582.000000  0   -2700012.877  -3031490.621  -5572564.278
10 0 59847  12702.000000  0   -3332027.928  -3377939.445  -5001587.504
10 0 59847  12822.000000  0   -3911600.594  -3655089.732  -4343081.862
10 0 59847  12942.000000  0   -4427339.566  -3859073.730  -3608489.247
10 0 59847  13062.000000  0   -4868887.727  -3987477.280  -2810610.581
10 0 59847  13182.000000  0   -5227136.614  -4039369.940  -1963388.183
10 0 59847  13302.000000  0   -5494420.753  -4015305.327  -1081663.755
10 0 59847  13422.000000  0   -5664687.047  -3917291.545   -180916.648
10 0 59847  13542.000000  0   -5733634.711  -3748731.957    723012.871
10 0 59847  13662.000000  0   -5698821.519  -3514337.640   1614210.706
10 0 59847  13782.000000  0   -5559731.472  -3220011.760   2476979.250
10 0 59847  13902.000000  0   -5317803.089  -2872709.888   3296122.221
10 0 59847  14022.000000  0   -4976418.581  -2480281.154   4057219.471
10 0 59847  14142.000000  0   -4540853.102  -2051292.276   4746886.205
10 0 59847  14262.000000  0   -4018186.088  -1594840.408   5353008.734
10 0 59847  14382.000000  0   -3417179.516  -1120360.705   5864954.832
10 0 59847  14502.000000  0   -2748124.490   -637431.087   6273757.735
10 0 59847  14622.000000  0   -2022657.569   -155577.777   6572268.551
10 0 59847  14742.000000  0   -1253552.486    315912.211   6755273.693
10 0 59847  14862.000000  0    -454493.162    768168.028   6819579.880
10 0 59847  14982.000000  0     360169.898   1192900.835   6764066.306
10 0 59847  15102.000000  0    1175676.498   1582555.357   6589703.079
10 0 59847  15222.000000  0    1977123.463   1930444.613   6299534.977
10 0 59847  15342.000000  0    2749736.042   2230864.681   5898631.467
10 0 59847  15462.000000  0    3479141.345   2479189.270   5394004.421
10 0 59847  15582.000000  0    4151639.139   2671942.172   4794491.209
10 0 59847  15702.000000  0    4754462.902   2806846.604   4110605.685
99
